SchoolID,SchoolName,FullName,SchoolName2,ISBE Name,Street Number,Street Direction,Street Name,City,State,ZIP,NCES ID,CPS Unit,ISBE ID,OracleID,Class,School Type,S_Type,School Category,Governance,Charter Type,Grade Structure,Attending Grades,ProgramTypes,Ward,Community Area Number,Community Area,IL Senate District,IL Rep District,US Congressional District,GeographicArea,Geographic Area Number,Cook County District,Census Block,Latitude,Longitude,Location
400115,Catalyst  - Maria,Catalyst-Maria Charter School,Catalyst Chtr - Maria,Catalyst Maria Charter School,6727,S,California Ave,Chicago,IL,60629,,9032,15016299025232C,66433,CPS,Charter,Charter,ES,Charter,Non-replicating  Charters Multi-charter,ES-HS,"K-6th, 9th-12th",NA||,15,66,Chicago Lawn,3,6,1,Chicago Lawn,8,2,170316609003001,41.7709914514,-87.6931119781,"(41.7709914514, -87.6931119781)"
400121,Uno  - Northside,UNO Charter - Rogers Park ES,Uno Chtr - Northside,UNO Network Charter Schools,7416,N,Ridge Blvd,Chicago,IL,60645,,9038,15016299025205C,66134,CPS,Charter,Charter,ES,Charter,Original Replicating Charters,ES-HS,K-9th,NA||,49,2,West Ridge,7,14,9,Ravenswood,30,13,170310201002001,42.0164781781,-87.6843690134,"(42.0164781781, -87.6843690134)"
610524,Alcott,Alcott High School for the Humanities,Alcott,Alcott Humanities High School,2957,N,Hoyne Ave,Chicago,IL,60618,170993006072,8035,150162990250849,22041,CPS,Regular,"District, non-alternative",HS,District,,ES-HS,9th-12th,AVID||,1,5,North Center,6,11,5,Lincoln Park,29,8,170310514002003,41.7712216704,-87.6664932337,"(41.7712216704, -87.6664932336999)"
400012,Amandla ,Amandla Charter High School,Amandla Chtr,Amandla Elem Charter Sch,6800,S,Stewart Ave,Chicago,IL,60621,170993005986,2035,15016299025227C,66551,CPS,Charter,Charter,HS,Charter,Non-replicating  Charters,ES-HS,5th-10th,NA||,6,68,Englewood,16,32,1,Englewood,4,3,170316812003013,41.7707911323,-87.6352295467,"(41.7707911322999, -87.6352295467)"
400035,Chgo Math & Sci Acad Campus,Chicago Math and Science Academy High School,Chgo Math & Sci Acad Campus,Chicago Math & Sci Elem Charter,7212,N,Clark St,Chicago,IL,60626,170993005092,7940,15016299025217C,66281,CPS,Charter,Charter,HS,Charter,Non-replicating  Charters,ES-HS,6th-12th,NA||,49,1,Rogers Park,7,14,9,Ravenswood,30,13,170310102022002,42.013034612,-87.6747818606,"(42.0130346119999, -87.6747818606)"
400113,Chicago Quest North,Chicago Intl Charter - Chicago Quest North,Chicago Quest North,Chicago International Charter,1443,N,Ogden Ave,Chicago,IL,60610,,8672,15016299025201C,66651,CPS,Charter,Charter,HS,Charter,Original Replicating Charters,ES-HS,6th-10th,NA||,27,8,Near North Side,5,9,7,Lincoln Park,29,2,170318422001040,41.9078097084,-87.6455939144,"(41.9078097084, -87.6455939143999)"
400036,Chicago Virtual  Campus,Chicago Virtual Charter High School,Chicago Virtual Chtr Campus,Chicago Virtual Elem Charter Schl,38,S,Peoria St,Chicago,IL,60607,170993099984,7700,15016299025225C,66481,CPS,Charter,Charter,HS,Charter,Non-replicating  Charters,ES-HS,K-12th,NA||,2,28,Near West Side,5,9,7,Near West,23,2,170318331001005,41.880550869,-87.6497357789,"(41.8805508689999, -87.6497357788999)"
400108,Cics - Hawkins,Chicago Intl Charter - Larry Hawkins,Cics - Hawkins,Chicago International Charter,801,E,133rd Pl,Chicago,IL,60827,170993003505,8110,15016299025201C,66077,CPS,Charter,Charter,HS,Charter,Original Replicating Charters,ES-HS,7th-12th,NA||,9,54,Riverdale,15,29,2,Far South Side,22,5,170315401013007,41.6531668986,-87.6018856014,"(41.6531668985999, -87.6018856013999)"
609783,Jefferson Alt,Nancy B Jefferson Alternative High School,Jefferson Alt,Jefferson  N Elem Alt School,1100,S,Hamilton Ave,Chicago,IL,60612,170993000894,2120,150162990253075,30011,Option,CPS,Alternative/District,HS,District,,ES-HS,8th-12th,NA||,2,28,Near West Side,5,9,7,Near West,23,2,170318382002026,41.8021121563,-87.6258200563,"(41.8021121562999, -87.6258200563)"
400052,Noble Street  - Comer,Noble Street Charter - Gary Comer College Prep,Noble Street Chtr - Comer,Noble Street Charter High School,7131,S,South Chicago Avenue,Chicago,IL,60619,170993003479,1935,15016299025006C,66146,CPS,Charter,Charter,HS,Charter,Original Replicating Charters,ES-HS,6th-12th,NA||,5,69,Greater Grand Crossing,3,5,1,South Shore,11,3,170318418002035,41.7652544243,-87.6045981285,"(41.7652544242999, -87.6045981285)"
610529,Ogden,Ogden International High School,Ogden,Ogden Int High School,1250,W,Erie St,Chicago,IL,60622,170993006093,8083,150162990250855,24731,CPS,Regular,"District, non-alternative",HS,District,,ES-HS,6th-12th,Selective_Enrollment||International_Gifted||IB||,1,24,West Town,2,4,5,Near North,10,8,170312432001011,41.893528,87.65941,"(41.893528, 87.65941)"
400066,Perspectives  - Iit,Perspectives Charter - IIT Math & Science Academy,Perspectives Chtr - Iit,Perspectives Charter High School,3663,S,Wabash Ave,Chicago,IL,60653,170993003450,1964,15016299025003C,66056,CPS,Charter,Charter,HS,Charter,Original Replicating Charters,ES-HS,6th-12th,NA||,3,35,Douglas,3,5,7,Bronzeville,15,3,170313514001017,41.8277834129,-87.6248244054,"(41.8277834128999, -87.6248244054)"
400064,Perspectives  - Joslin,Perspectives Charter - Rodney D Joslin,Perspectives Chtr - Joslin,Perspectives Charter High School,1930,S,Archer Ave,Chicago,IL,60616,170993003450,1960,15016299025003C,66051,CPS,Charter,Charter,HS,Charter,Original Replicating Charters,ES-HS,6th-12th,NA||,3,33,Near South Side,3,6,7,Loop,1,2,170313302002037,41.8559760518,-87.6285109892,"(41.8559760517999, -87.6285109891999)"
400061,Perspectives  - Leadership Academy,Perspectives Charter Leadership Academy,Perspectives Chtr - Leadership Academy,Perspectives Charter High School,8131,S,May St,Chicago,IL,60620,170993003450,1961,15016299025003C,66052,CPS,Charter,Charter,HS,Charter,Original Replicating Charters,ES-HS,6th-12th,NA||,21,71,Auburn Gresham,16,31,1,Auburn Gresham,5,4,170317108006008,41.7459346287,-87.6523281373,"(41.7459346286999, -87.6523281373)"
400077,Univ Of Chgo  - Woodlawn,University of Chicago Charter - Woodlawn,Univ Of Chgo Chtr - Woodlawn,Univ of Chicago Elem Charter Schl,6420,S,University Ave,Chicago,IL,60637,170993003542,3061,15016299025204C,66112,CPS,Charter,Charter,HS,Charter,Original Replicating Charters,ES-HS,6th-12th,NA||,20,42,Woodlawn,13,26,1,Woodlawn,13,3,170318344001008,41.7781185053,-87.5980804463,"(41.7781185053, -87.5980804463)"
400149,Uno  - Soccer Academy,UNO Soccer Academy High School,Uno Chtr - Soccer Academy,,5025,S,St Louis Ave,Chicago,IL,60632,,9640,,,CPS,Charter,Charter,HS,Charter,Original Replicating Charters,ES-HS,6th-9th,NA||,14,63,Gage Park,11,22,4,McKinley Park,17,7,170316303002004,41.8017620743,-87.7110616587,"(41.8017620743, -87.7110616587)"
609746,Kenwood,Kenwood Academy High School,Kenwood,Kenwood Academy High School,5015,S,Blackstone Ave,Chicago,IL,60615,170993000925,1710,150162990250025,46361,CPS,Regular,"District, non-alternative",HS,District,,"ES,","7th-8th, 9th-12th",NA||,4,39,Kenwood,13,25,1,Hyde Park,14,3,170313907002006,41.9829450848,-87.7223855851,"(41.9829450848, -87.7223855851)"
609720,Lane,Albert G Lane Technical High School,Lane,Lane Technical High School,2501,W,Addison St,Chicago,IL,60618,170993000942,1440,150162990250027,46221,CPS,Regular,"District, non-alternative",HS,District,,"ES,","7th-8th, 9th-12th",NA||,47,5,North Center,6,11,5,Logan,9,12,170318437001018,41.7904824289,-87.780394718,"(41.7904824288999, -87.7803947179999)"
610391,Lindblom,Robert Lindblom Math & Science Academy,Lindblom,Lindblom Math & Science Acad,6130,S,Wolcott Ave,Chicago,IL,60636,170993005791,7110,150162990250833,46511,CPS,Regular,"District, non-alternative",HS,District,,"ES,","7th-8th, 9th-12th",NA||,15,67,West Englewood,3,6,7,Englewood,4,2,170316706002004,41.8944493761,-87.7261296106,"(41.8944493760999, -87.7261296105999)"
609725,Morgan Park,Morgan Park High School,Morgan Park,Morgan Park High School,1744,W,Pryor Ave,Chicago,IL,60643,170993001002,1490,150162990250031,46251,CPS,Regular,"District, non-alternative",HS,District,,"ES,","7th-8th, 9th-12th",IB||,19,75,Morgan Park,14,27,1,Beverly,3,5,170317505003002,41.8784166476,-87.7080494806,"(41.8784166475999, -87.7080494805999)"
609734,Taft,William Howard Taft High School,Taft,Taft High School,6530,W,Bryn Mawr Ave,Chicago,IL,60631,170993001153,1580,150162990250043,46311,CPS,Regular,"District, non-alternative",HS,District,,"ES,","7th-8th, 9th-12th",IB_Wall_to_Wall||,41,10,Norwood Park,10,20,5,Sauganash,28,9,170311003001009,41.9356342059,-87.7834784908,"(41.9356342059, -87.7834784907999)"
609755,Young,Whitney M Young Magnet High School,Young,Young Magnet High School,211,S,Laflin St,Chicago,IL,60607,170993000714,1810,150162990250764,47101,CPS,Regular,"District, non-alternative",HS,District,,"ES,","7th-8th, 9th-12th",NA||,2,28,Near West Side,5,9,7,Near West,23,2,170318331003031,41.6912481757,-87.7177706097,"(41.6912481756999, -87.7177706096999)"
400010,Ace Technical ,"Architecture, Construction, and Engineering(ACE)Technical Charter School",Ace Technical Chtr,Ace Technical Charter High School,5410,S,State St,Chicago,IL,60609,170993005684,7950,15016299025009C,66291,CPS,Charter,Charter,HS,Charter,Non-replicating  Charters,HS,9th-12th,NA||,3,40,Washington Park,3,5,7,Bronzeville,15,2,170318361002000,41.796121999,-87.6258123714,"(41.796121999, -87.6258123714)"
610513,Air Force,Air Force Academy High School,Air Force,Air Force Acad High School,3630,S,Wells St,Chicago,IL,60609,170993006055,1055,150162990250848,45231,CPS,Regular,"District, non-alternative",HS,District,,HS,9th-12th,Military||,11,34,Armour Square,3,6,3,Bridgeport - Chinatown,18,2,170313406001012,41.8277744098,-87.6775785338,"(41.8277744098, -87.6775785338)"
609695,Amundsen,Roald Amundsen High School,Amundsen,Amundsen High School,5110,N,Damen Ave,Chicago,IL,60625,170993000587,1210,150162990250001,46031,CPS,Regular,"District, non-alternative",HS,District,,HS,9th-12th,IB||AVID||,47,4,Lincoln Square,7,13,5,Ravenswood,30,12,170310404022002,41.8900046421,-87.7073328695,"(41.8900046421, -87.7073328694999)"
400013,Aspira  - Early College,ASPIRA Charter - Early College,Aspira Chtr - Early College,Aspira Charter High School,3986,W,Barry Ave,Chicago,IL,60618,170993005663,7803,15016299025008C,66254,CPS,Charter,Charter,HS,Charter,Original Replicating Charters,HS,9th-12th,NA||,31,21,Avondale,20,39,4,Logan,9,8,170312105012024,41.9373268348,-87.7268360207,"(41.9373268347999, -87.7268360207)"
400015,Aspira  - Ramirez,ASPIRA Charter - Mirta Ramirez Computer Science,Aspira Chtr - Ramirez,Aspira Charter High School,1711,N,California Ave,Chicago,IL,60647,170993005663,7800,15016299025008C,66251,CPS,Charter,Charter,HS,Charter,Original Replicating Charters,HS,9th-12th,NA||,1,24,West Town,2,4,4,Humboldt Park,21,8,170312407001004,41.9125048318,-87.696978115,"(41.9125048318, -87.6969781149999)"
400018,Austin Bus & Entrp,Austin Business and Entrepreneurship Academy,Austin Bus & Entrp,Austin Bus & Entrepreneurship,231,N,Pine Ave,Chicago,IL,60644,170993099980,7020,150162990250839,66411,CPS,Regular,"District, non-alternative",HS,District,,HS,9th-12th,NA||,28,25,Austin,4,8,7,Austin,25,1,170312519003008,41.8852126906,-87.7632855867,"(41.8852126906, -87.7632855866999)"
610501,Austin Poly,Austin Polytechnical Academy High School,Austin Poly,Austin Polytechnical Academy,231,N,Pine Ave,Chicago,IL,60644,170993099998,1065,150162990250840,49141,CPS,Regular,"District, non-alternative",HS,District,,HS,9th-12th,CTE_CCA||,28,25,Austin,4,8,7,Austin,25,1,170312519003008,41.8831870831,-87.6776352886,"(41.8831870830999, -87.6776352886)"
610563,Back Of The Yards Ib,Back of the Yards IB,Back Of The Yards Ib,,2111,W,"47th St Chicago, IL 6060",Chicago,IL,60609,,9623,,46551,CPS,Regular,"District, non-alternative",HS,District,,HS,9th-12th,IB_Wall_to_Wall||,12,61,New City,1,2,4,McKinley Park,17,7,170316115002000,41.8065188452,-87.6897806711,"(41.8065188452, -87.6897806710999)"
610555,Banner Academy West,Banner Academy West,Banner Academy West,Banner West Academy,,,,Chicago,IL,60651,170993006174,8685,150162990253793,66301,Option,ALOP,Alternative/District,HS,District,,HS,10th-12th,,37,25,Austin,4,8,7,Austin,25,1,170312511003008,41.758819102,-87.5763531983,"(41.7588191019999, -87.5763531982999)"
609698,Bogan,William J Bogan High School,Bogan,Bogan High School,3939,W,79th St,Chicago,IL,60652,170993000626,1230,150162990250003,46041,CPS,Regular,"District, non-alternative",HS,District,,HS,9th-12th,IB||CTE_Neighborhood||,18,70,Ashburn,16,32,1,Ashburn,6,11,170317004012009,41.7914364693,-87.7244699628,"(41.7914364693, -87.7244699628)"
610323,Bowen,Bowen High School,Bowen,Bowen High School,2710,E,89th St,Chicago,IL,60617,170993005072,7540,150162990250824,46491,CPS,Regular,"District, non-alternative",HS,District,,HS,9th-12th,AVID||JROTC||CTE_Neighborhood||,7,46,South Chicago,13,26,2,South Shore,11,4,170314606001016,41.8293550503,-87.6678531946,"(41.8293550503, -87.6678531945999)"
610566,Bridgescape Academy Of North Lawndale,Magic Johnson Bridgescape Academy North Lawndale,Bridgescape Academy Of North Lawndale,,,,,Chicago,IL,60624,,9631,,,Option,ALOP,Alternative/District,HS,District,,HS,,NA||,24,29,North Lawndale,5,9,7,North Lawndale,19,2,170318430001029,41.8084399754,-87.6775423669,"(41.8084399753999, -87.6775423668999)"
610567,Bridgescape Academy Of South Shore,Magic Johnson Bridgescape Academy South Shore,Bridgescape Academy Of South Shore,,,,,Chicago,IL,60649,,9632,,,Option,ALOP,Alternative/District,HS,District,,HS,,NA||,5,43,South Shore,13,26,2,South Shore,11,3,170314302003002,41.9519884366,-87.7202837621,"(41.9519884365999, -87.7202837620999)"
610381,Bronzeville,Bronzeville Scholastic Academy High School,Bronzeville,Bronzeville Scholastic,4934,S,Wabash Ave,Chicago,IL,60615,170993005792,7270,150162990250834,55191,CPS,Regular,"District, non-alternative",HS,District,,HS,9th-12th,IB||,3,38,Grand Boulevard,3,5,7,Bronzeville,15,3,170313818001010,41.7341529088,-87.6467675163,"(41.7341529087999, -87.6467675163)"
609726,Brooks,Gwendolyn Brooks College Preparatory Academy,Brooks,Brooks College Prep Academy,250,E,111th St,Chicago,IL,60628,170993002031,1500,150162990250788,47051,CPS,Regular,"District, non-alternative",HS,District,,HS,9th-12th,Selective_Enrollment||CTE_Neighborhood||,9,49,Roseland,14,28,2,Far South Side,22,5,170314909013022,41.9875672366,-87.7025193447,"(41.9875672366, -87.7025193446999)"
610565,Camelot - Excel Academy Of Englewood,Excel Academy of Englewood,Camelot - Excel Academy Of Englewood,,7141,S,Morgan St,Chicago,IL,60621,,9630,,,Option,Contract,Alternative/Contract,HS,Contract,,HS,,NA||,17,68,Englewood,16,31,1,Englewood,4,3,170316814004010,41.8775287339,-87.6832489542,"(41.8775287339, -87.6832489541999)"
610573,Camelot - Safe School Program,Camelot Safe Academy High School,Camelot - Safe School Program,,,,,Chicago,IL,"Ave. Chicago, IL 60649",,9638,,,Option,SAFE,Alternative/District,HS,District,,HS,,NA||,7,46,South Chicago,13,25,2,South Shore,11,4,170314601001007,42.0171710912,-87.806644974,"(42.0171710911999, -87.8066449739999)"
609760,Carver Military,George Washington Carver Military Academy,Carver Military,Carver Military Academy,13100,S,Doty Ave,Chicago,IL,60627,170993000671,1850,150162990250006,46381,CPS,Regular,"District, non-alternative",HS,District,,HS,9th-12th,Military||,9,54,Riverdale,17,34,2,Far South Side,22,4,170315401022003,41.8030814219,-87.7220649188,"(41.8030814219, -87.7220649188)"
610340,Chgo Acad,Chicago Academy High School,Chgo Acad,Chicago Academy High School,3400,N,Austin Ave,Chicago,IL,60634,170993005061,7770,150162990250820,46481,CPS,Regular,"District, non-alternative",HS,District,,HS,9th-12th,NA||,38,17,Dunning,20,39,5,Reed-Dunning,24,12,170311711001012,41.8862374964,-87.7154238419,"(41.8862374964, -87.7154238419)"
609753,Chgo Agr,Chicago High School for Agricultural Sciences,Chgo Agr,Chicago for Agricult Sciences,3857,W,111th St,Chicago,IL,60655,170993005147,1790,150162990250772,47091,CPS,Regular,"District, non-alternative",HS,District,,HS,9th-12th,Magnet||CTE_Neighborhood||,19,74,Mount Greenwood,18,35,1,Beverly,3,11,170317404003008,41.8643649233,-87.6687589328,"(41.8643649233, -87.6687589328)"
400022,Chgo Arts Contr,Chicago High School for the Arts,Chgo Arts Contr,Chicago for the Arts,521,E,35th St,Chicago,IL,60616i,170993006058,8047,150162990250851,63051,CPS,Contract,Contract,HS,Contract,0,HS,9th-12th,NA||,4,35,Douglas,13,26,1,Bronzeville,15,3,170313510002005,41.8311449728,-87.6136286803,"(41.8311449727999, -87.6136286802999)"
609754,Chgo Military Acad,Chicago Military Academy High School,Chgo Military Acad,Chicago Military Academy,3519,S,Giles Ave,Chicago,IL,60653,170993003487,1800,150162990250795,70070,CPS,Regular,"District, non-alternative",HS,District,,HS,9th-12th,Military||,2,35,Douglas,3,5,1,Bronzeville,15,3,170318396002000,41.8136749838,-87.6039105379,"(41.8136749837999, -87.6039105379)"
400093,Chgo Talent ,Chicago Talent Development,Chgo Talent Chtr,Chicago Talent Dev High School,2245,W,Jackson Blvd,Chicago,IL,60612,170993006075,8053,15016299025014C,63111,CPS,Charter,Charter,HS,Charter,Non-replicating  Charters,HS,9th-12th,NA||,2,28,Near West Side,5,9,7,Near West,23,2,170318380001026,41.8775287339,-87.6832489542,"(41.8775287339, -87.6832489541999)"
400147,Chicago Excel Contr Acad,Chicago Excel Academy,Chicago Excel Contr Acad,Chicago Excel Acad,1269,W,111th St,Chicago,IL,60643,170993006219,9066,150162990250862,63141,Option,Contract,Alternative/Contract,HS,Contract,0,HS,10th-12th,NA||,34,75,Morgan Park,14,27,1,Far South Side,22,4,170317506003001,41.692157642,-87.6544645335,"(41.6921576419999, -87.6544645335)"
400091,Chicago Tech Academy,Chicago Technology Academy High School,Chicago Tech Academy,Chicago Technology Academy,1301,W,14th St,Chicago,IL,60608,170993006076,8022,150162990250850,63091,CPS,Contract,Contract,HS,Contract,0,HS,9th-12th,NA||,2,28,Near West Side,5,9,7,Near West,23,2,170318429003010,41.8633288357,-87.6590960191,"(41.8633288357, -87.6590960191)"
609674,Chicago Vocational,Chicago Vocational Career Academy High School,Chicago Vocational,Chicago Vocational Career Acad,2100,E,87th St,Chicago,IL,60617,170993000943,1010,150162990250526,53011,CPS,Regular,"District, non-alternative",HS,District,,HS,9th-12th,CTE_CCA||ECSS||JROTC||STEM||,8,45,Avalon Park,17,33,2,Chatham,12,4,170314503003005,41.8459653309,-87.68554722,"(41.8459653309, -87.68554722)"
400032,Cics - Ellison,Chicago Intl Charter - Ralph Ellison,Cics - Ellison,Chicago International Charter,1817,W,80th St,Chicago,IL,60620,170993003505,4911,15016299025201C,66072,CPS,Charter,Charter,HS,Charter,Original Replicating Charters,HS,9th-12th,NA||,18,71,Auburn Gresham,16,31,1,Auburn Gresham,5,3,170317105003002,41.7484098473,-87.6689802311,"(41.7484098473, -87.6689802310999)"
400033,Cics - Longwood,Chicago Intl Charter - Longwood,Cics - Longwood,Chicago International Charter,1309,W,95th St,Chicago,IL,60643,170993003505,2420,15016299025201C,66061,CPS,Charter,Charter,HS,Charter,Original Replicating Charters,HS,9th-12th,NA||,21,73,Washington Heights,14,27,1,Auburn Gresham,5,4,170317304002001,41.7212488715,-87.6557687539,"(41.7212488715, -87.6557687539)"
400034,Cics - Northtown,Chicago Intl Charter - Northtown,Cics - Northtown,Chicago International Charter,3900,W,Peterson Ave,Chicago,IL,60659,170993003505,7740,15016299025201C,66241,CPS,Charter,Charter,HS,Charter,Original Replicating Charters,HS,9th-12th,NA||,39,13,North Park,8,15,5,Albany Irving,27,10,170311301002003,41.990217574,-87.7265036636,"(41.9902175739999, -87.7265036635999)"
610244,Clark,Michele Clark Academic Prep Magnet High School,Clark,Clark Acad Prep Magnet High Schl,5101,W,Harrison St,Chicago,IL,60644,170993001210,6620,150162990250827,41051,CPS,Regular,"District, non-alternative",HS,District,,HS,9th-12th,Magnet||ECSS||STEM||,24,25,Austin,4,8,7,Austin,25,2,170318314001006,41.8023431427,-87.6721697288,"(41.8023431427, -87.6721697288)"
609759,Clemente,Roberto Clemente Community Academy High School,Clemente,Clemente Community Academy,1147,N,Western Ave,Chicago,IL,60622,170993001086,1840,150162990250545,51091,CPS,Regular,"District, non-alternative",HS,District,,HS,9th-12th,IB_Wall_to_Wall||JROTC||CTE_IBCC||,1,24,West Town,2,4,5,Humboldt Park,21,12,170312424001001,41.8786020833,-87.6642700568,"(41.8786020833, -87.6642700568)"
610499,Collins,Collins Academy High School,Collins,Collins Academy High School,1313,S,Sacramento Dr,Chicago,IL,60623,170993099995,1045,150162990250841,49131,CPS,Regular,"District, non-alternative",HS,District,,HS,9th-12th,NA||,24,29,North Lawndale,5,9,7,North Lawndale,19,2,170318431001005,41.9413882507,-87.6907246464,"(41.9413882507, -87.6907246464)"
400038,Community Services West,Community Services West Academy,Community Services West,Community Services West High Sch,1239,S,Pulaski Rd,Chicago,IL,60623,170993005977,1225,150162990250846,63061,Option,Contract,Alternative/Contract,HS,Contract,0,HS,11th-12th,NA||,24,29,North Lawndale,5,9,7,North Lawndale,19,2,170318387003008,41.8649516199,-87.725058722,"(41.8649516198999, -87.725058722)"
609761,Corliss,George H Corliss High School,Corliss,Corliss High School,821,E,103rd St,Chicago,IL,60628,170993001072,1860,150162990250543,46391,CPS,Regular,"District, non-alternative",HS,District,,HS,9th-12th,ECSS||JROTC||STEM||,9,50,Pullman,17,34,2,Far South Side,22,4,170315002001003,41.902625308,-87.6869428735,"(41.9026253079999, -87.6869428735)"
609702,Crane,Richard T Crane Technical Preparatory,Crane,Crane Technical Prep High School,2245,W,Jackson Blvd,Chicago,IL,60612,170993000717,1270,150162990250008,46081,CPS,Regular,"District, non-alternative",HS,District,,HS,11th-12th,NA||,2,28,Near West Side,5,9,7,Near West,23,2,170318380001026,41.9750679336,-87.6794474519,"(41.9750679336, -87.6794474519)"
610561,Crane Medical Prep,Richard T Crane Medical Preparatory,Crane Medical Prep,,2245,W,Jackson Blvd,Chicago,IL,60612,,9621,,46641,CPS,Regular,"District, non-alternative",HS,District,,HS,9th,Magnet||Medical||,2,28,Near West Side,5,9,7,Near West,23,2,170318380001026,41.7537492042,-87.707381987,"(41.7537492041999, -87.707381987)"
609756,Curie,Marie Sklodowska Curie Metropolitan High School,Curie,Curie Metropolitan High School,4959,S,Archer Ave,Chicago,IL,60632,170993001198,1820,150162990250617,53101,CPS,Regular,"District, non-alternative",HS,District,,HS,9th-12th,Magnet||IB||CTE_CCA||JROTC||,14,57,Archer Heights,1,1,4,McKinley Park,17,7,170315704002002,41.8305544189,-87.6192522267,"(41.8305544189, -87.6192522266999)"
610402,Devry,DeVry University Advantage Academy,Devry,Devry Advantage Academy High Schl,3300,N,Campbell,Chicago,IL,60618,170993005790,6990,150162990250832,46521,CPS,Regular,"District, non-alternative",HS,District,,HS,11th-12th,NA||,47,5,North Center,6,11,5,Logan,9,12,170318437001021,41.9655200272,-87.6524725414,"(41.9655200272, -87.6524725414)"
,Disney Ii,Disney II Magnet High School,Disney Ii,,3900,N,Lawndale Ave,Chicago,IL,60618,,9626,,26921,CPS,Regular,"District, non-alternative",HS,District,,HS,"7th, 9th",NA||,39,16,Irving Park,20,40,4,Albany Irving,27,8,170311609001005,41.7526966442,-87.5508909663,"(41.7526966442, -87.5508909663)"
610245,Douglass,Frederick A Douglass Academy High School,Douglass,Douglass Academy High School,543,N,Waller Ave,Chicago,IL,60644,170993005789,6630,150162990250831,41061,CPS,Regular,"District, non-alternative",HS,District,,HS,9th-12th,JROTC||,29,25,Austin,39,78,7,Austin,25,1,170312514002006,41.9599836094,-87.6497859233,"(41.9599836093999, -87.6497859233)"
609676,Dunbar,Paul Laurence Dunbar Career Academy High School,Dunbar,Dunbar Vocational Career Acad,3000,S,King Dr,Chicago,IL,60616,170993000588,1030,150162990250531,53021,CPS,Regular,"District, non-alternative",HS,District,,HS,9th-12th,CTE_CCA||JROTC||,2,35,Douglas,3,5,1,Bronzeville,15,3,170318392001005,41.8875163595,-87.702165851,"(41.8875163594999, -87.702165851)"
609736,Dyett,Dyett High School,Dyett,Dyett High School,555,E,51st St,Chicago,IL,60615,170993004265,1600,150162990250798,66021,CPS,Regular,"District, non-alternative",HS,District,,HS,11th-12th,NA||,4,40,Washington Park,13,26,1,Bronzeville,15,3,170318361003000,41.9829335474,-87.7915467721,"(41.9829335474, -87.7915467721)"
400094,Epic ,EPIC Academy High School,Epic Chtr,EPIC Academy High School,8255,S,Houston Ave,Chicago,IL,60617,170993006088,8058,15016299025015C,63081,CPS,Charter,Charter,HS,Charter,Non-replicating  Charters,HS,9th-12th,NA||,7,46,South Chicago,13,25,2,South Shore,11,4,170314601004005,41.7448481837,-87.5502589914,"(41.7448481837, -87.5502589914)"
609704,Farragut,David G Farragut Career Academy High School,Farragut,Farragut Career Academy,2345,S,Christiana Ave,Chicago,IL,60623,170993000788,1300,150162990250011,53091,CPS,Regular,"District, non-alternative",HS,District,,HS,"PK, 9th-12th",IB||,22,30,South Lawndale,11,21,4,Pilsen - Little Village,16,7,170313008001019,41.7494030472,-87.7210981622,"(41.7494030471999, -87.7210981621999)"
609705,Fenger,Christian Fenger Academy High School,Fenger,Fenger Academy High School,11220,S,Wallace St,Chicago,IL,60628,170993000792,1310,150162990250012,46111,CPS,Regular,"District, non-alternative",HS,District,,HS,9th-12th,CTE_CCA||JROTC||,34,49,Roseland,14,28,2,Far South Side,22,5,170314912003013,41.8775287339,-87.6832489542,"(41.8775287339, -87.6832489541999)"
400042,Ford ,Henry Ford Academy Power House Charter,Ford Chtr,Ford Power House Charter,931,S,Homan Ave,Chicago,IL,60624,170993005978,1165,15016299025011C,67091,CPS,Charter,Charter,HS,Charter,Non-replicating  Charters,HS,11th-12th,NA||,24,29,North Lawndale,5,9,7,North Lawndale,19,2,170318430001001,41.8693119927,-87.7105633272,"(41.8693119926999, -87.7105633272)"
609708,Foreman,Edwin G Foreman High School,Foreman,Foreman High School,3235,N,LeClaire Ave,Chicago,IL,60641,170993000799,1330,150162990250013,46131,CPS,Regular,"District, non-alternative",HS,District,,HS,9th-12th,JROTC||CTE_CCA||,30,15,Portage Park,20,39,4,Albany Irving,27,12,170311510012004,41.6899513076,-87.6375354477,"(41.6899513075999, -87.6375354477)"
609709,Gage Park,Gage Park High School,Gage Park,Gage Park High School,5630,S,Rockwell St,Chicago,IL,60629,170993000809,1340,150162990250015,46141,CPS,Regular,"District, non-alternative",HS,District,,HS,9th-12th,AVID||JROTC||,16,63,Gage Park,1,1,3,McKinley Park,17,7,170318351002004,41.7697134174,-87.6371893712,"(41.7697134173999, -87.6371893711999)"
610558,Goode Acad,Sarah E. Goode STEM Academy,Goode Acad,Goode STEM Academy,7651,S,Homan Ave,Chicago,IL,60652,,9598,150162990250861,46611,CPS,Regular,"District, non-alternative",HS,District,,HS,9th-10th,ECSS||STEM||,18,70,Ashburn,16,32,1,Ashburn,6,3,170317001001000,41.8955535607,-87.7543204085,"(41.8955535607, -87.7543204085)"
609769,"Graham,r",Ray Graham Training Center High School,"Graham,r",Graham  R Training Center,2347,S,Wabash Ave,Chicago,IL,60616,170993001076,1950,150162990253715,49101,CPS,Regular,"District, Special Ed.",HS,District,,HS,9th-12th,NA||,2,33,Near South Side,3,5,7,Loop,1,3,170318410001028,41.9603631728,-87.7646999296,"(41.9603631728, -87.7646999295999)"
610383,Greater Lawndale,Greater Lawndale High School For Social Justice,Greater Lawndale,School of Social Justice,3120,S,Kostner Ave,Chicago,IL,60623,170993005793,7600,150162990250835,55171,CPS,Regular,"District, non-alternative",HS,District,,HS,9th-12th,NA||,22,30,South Lawndale,11,21,4,Pilsen - Little Village,16,7,170318305001006,41.8045587817,-87.6244105627,"(41.8045587817, -87.6244105627)"
609694,Hancock,John Hancock College Preparatory High School,Hancock,Hancock College Preparatory,4034,W,56th St,Chicago,IL,60629,170993001980,1200,150162990250779,46021,CPS,Regular,"District, non-alternative",HS,District,,HS,9th-12th,NA||,13,62,West Elsdon,11,22,3,McKinley Park,17,7,170316203001002,41.7457867051,-87.6354462756,"(41.7457867051, -87.6354462756)"
609710,Harlan,John M Harlan Community Academy High School,Harlan,Harlan Community Academy,9652,S,Michigan Ave,Chicago,IL,60628,170993000851,1350,150162990250016,51021,CPS,Regular,"District, non-alternative",HS,District,,HS,9th-12th,Selective_Enrollment||Academic_Center||CTE_CCA||AVID||JROTC||Magnet_Cluster||Pre-Engineering||,6,49,Roseland,17,34,1,Chatham,12,4,170314905002004,41.9397961358,-87.754203288,"(41.9397961358, -87.7542032879999)"
609711,Harper,William Rainey Harper High School,Harper,Harper High School,6520,S,Wood St,Chicago,IL,60636,170993000852,1360,150162990250017,46151,CPS,Regular,"District, non-alternative",HS,District,,HS,9th-12th,CTE_CCA||AVID||JROTC||,15,67,West Englewood,3,6,7,Englewood,4,2,170316713001026,41.7910134089,-87.6889172815,"(41.7910134089, -87.6889172814999)"
609712,Hirsch,Emil G Hirsch Metropolitan High School,Hirsch,Hirsch Metropolitan High School,7740,S,Ingleside Ave,Chicago,IL,60619,170993000879,1380,150162990250019,47031,CPS,Regular,"District, non-alternative",HS,District,,HS,9th-12th,AVID||JROTC||CTE_Neighborhood||,8,69,Greater Grand Crossing,3,5,1,South Shore,11,3,170316915003000,41.7183727975,-87.6205868145,"(41.7183727975, -87.6205868145)"
609768,Hope,Hope College Preparatory High School,Hope,Hope College Prep High School,5515,S,Lowe Ave,Chicago,IL,60621,170993004266,1940,150162990250799,49091,CPS,Regular,"District, non-alternative",HS,District,,HS,9th-12th,AVID||CTE_Neighborhood||,3,68,Englewood,3,6,7,Englewood,4,2,170318347003007,41.8526670963,-87.6636957483,"(41.8526670963, -87.6636957483)"
609741,Hubbard,Gurdon S Hubbard High School,Hubbard,Hubbard High School,6200,S,Hamlin Ave,Chicago,IL,60629,170993000889,1670,150162990250020,46341,CPS,Regular,"District, non-alternative",HS,District,,HS,9th-12th,IB||JROTC||CTE_Neighborhood||,13,65,West Lawn,11,22,3,Chicago Lawn,8,7,170316501003011,41.6881643781,-87.5375700911,"(41.6881643780999, -87.5375700910999)"
609713,Hyde Park,Hyde Park Academy High School,Hyde Park,Hyde Park Academy High School,6220,S,Stony Island Ave,Chicago,IL,60637,170993000893,1390,150162990250021,46171,CPS,Regular,"District, non-alternative",HS,District,,HS,9th-12th,IB_Wall_to_Wall||AVID||JROTC||CTE_IBCC||,5,42,Woodlawn,13,25,1,Woodlawn,13,3,170314201001023,41.7751246566,-87.6690526444,"(41.7751246565999, -87.6690526443999)"
610384,Infinity,Infinity Math Science and Technology High School,Infinity,Infinity Math  Science & Tech,3120,S,Kostner Ave,Chicago,IL,60623,170993005795,7680,150162990250837,55151,CPS,Regular,"District, non-alternative",HS,District,,HS,9th-12th,AVID||,22,30,South Lawndale,11,21,4,Pilsen - Little Village,16,7,170318305001006,41.8045587817,-87.6244105627,"(41.8045587817, -87.6244105627)"
400104,Instituto Acad  Health,Instituto Health Sciences Career Academy,Instituto Acad Chtr Health,Instituto Health Science Acad,2520,S,Western Ave,Chicago,IL,60608,,8026,15016299025012C,63131,CPS,Charter,Charter,HS,Charter,Non-replicating  Charters,HS,9th-12th,NA||,25,31,Lower West Side,1,2,4,Pilsen - Little Village,16,2,170318413002016,41.8459653309,-87.68554722,"(41.8459653309, -87.68554722)"
400148,Instituto Justice  Acad,Instituto Justice and Leadership Acad Charter,Instituto Justice Chtr Acad,IJLA Charter High School,2570,S,Blue Island Blvd,Chicago,IL,60608,170993006238,9065,15016299025020C,63132,Option,Charter -- Alt. Multi-site,Alternative/Charter,HS,Charter,Replicating Alternative Charter,HS,10th-12th,NA||,25,31,Lower West Side,1,2,4,Pilsen - Little Village,16,7,170318413003020,41.84542162,-87.6840481343,"(41.84542162, -87.6840481342999)"
400162,Intrinsic Schools,Intrinsic Charter,Intrinsic Schools,,17,N,State St,Chicago,IL,60602,,9619,,,CPS,Charter,Charter,HS,Charter,Non-replicating  Charters,HS,9th,NA||,42,32,Loop,3,5,7,Loop,1,2,170313201001017,41.6793190033,-87.6179312741,"(41.6793190033, -87.6179312741)"
609678,Jones,William Jones College Preparatory High School,Jones,Jones College Prep High School,700,S,State St,Chicago,IL,60605,170993000990,1060,150162990250533,47021,CPS,Regular,"District, non-alternative",HS,District,,HS,9th-12th,Selective_Enrollment||CTE_CCA||,2,32,Loop,3,6,7,Loop,1,2,170318390004004,41.7371464977,-87.5732667997,"(41.7371464977, -87.5732667996999)"
609764,Juarez,Benito Juarez Community Academy High School,Juarez,Juarez Community Academy,2150,S,Laflin St,Chicago,IL,60608,170993000722,1890,150162990250767,46421,CPS,Regular,"District, non-alternative",HS,District,,HS,9th-12th,CTE_CCA||JROTC||IB,25,31,Lower West Side,1,2,4,Pilsen - Little Village,16,7,170313107001020,41.7074460748,-87.6030643545,"(41.7074460748, -87.6030643545)"
609762,Julian,Percy L Julian High School,Julian,Julian High School,10330,S,Elizabeth St,Chicago,IL,60643,170993000895,1870,150162990250763,46401,CPS,Regular,"District, non-alternative",HS,District,,HS,9th-12th,CTE_CCA||AVID||,21,73,Washington Heights,14,27,1,Beverly,3,4,170317307002017,41.6562905594,-87.5905838017,"(41.6562905593999, -87.5905838017)"
609715,Kelly,Thomas Kelly High School,Kelly,Kelly High School,4136,S,California Ave,Chicago,IL,60632,170993000920,1400,150162990250022,46181,CPS,Regular,"District, non-alternative",HS,District,,HS,9th-12th,IB||CTE_Neighborhood||,14,58,Brighton Park,11,21,4,McKinley Park,17,7,170315805012008,41.7537488721,-87.601690639,"(41.7537488720999, -87.6016906389999)"
609716,Kelvyn Park,Kelvyn Park High School,Kelvyn Park,Kelvyn Park High School,4343,W,Wrightwood Ave,Chicago,IL,60639,170993000923,1410,150162990250023,46191,CPS,Regular,"District, non-alternative",HS,District,,HS,9th-12th,JROTC||CTE_Neighborhood||,31,20,Hermosa,20,39,4,Logan,9,8,170312002002004,41.7822574257,-87.5865783526,"(41.7822574257, -87.5865783526)"
609718,Kennedy,John F Kennedy High School,Kennedy,Kennedy High School,6325,W,56th St,Chicago,IL,60638,170993000924,1420,150162990250024,46201,CPS,Regular,"District, non-alternative",HS,District,,HS,9th-12th,IB||CTE_Neighborhood||,23,56,Garfield Ridge,11,22,3,MDW,7,11,170315611006006,41.8187296523,-87.694601984,"(41.8187296523, -87.694601984)"
609751,King,Dr  Martin Luther King  Jr  College Prep,King,King College Prep High School,4445,S,Drexel Blvd,Chicago,IL,60653,170993000931,1760,150162990250039,46371,CPS,Regular,"District, non-alternative",HS,District,,HS,9th-12th,Selective_Enrollment||CTE_Neighborhood||,4,39,Kenwood,13,25,7,Bronzeville,15,3,170313903002009,41.981314779,-87.7087445721,"(41.981314779, -87.7087445721)"
609719,Lake View,Lake View High School,Lake View,Lake View High School,4015,N,Ashland Ave,Chicago,IL,60613,170993000941,1430,150162990250026,46211,CPS,Regular,"District, non-alternative",HS,District,,HS,9th-12th,ECSS||JROTC||STEM||,47,6,Lake View,6,11,5,Ravenswood,30,12,170310601003006,41.92794584,-87.7359995221,"(41.92794584, -87.7359995221)"
400119,Legal Prep  - Academy,Legal Prep Charter Academy,Legal Prep Chtr - Academy,Legal Prep Academy Charter,,,,Chicago,IL,60624,,9036,15016299025019C,66641,CPS,Charter,Charter,HS,Charter,Non-replicating  Charters,HS,9th-10th,NA||,28,26,West Garfield Park,5,10,7,Garfield - West Humboldt,20,1,170312603001027,41.8818929926,-87.7338528673,"(41.8818929926, -87.7338528673)"
609738,Lincoln Park,Lincoln Park High School,Lincoln Park,Lincoln Park High School,2001,N,Orchard St,Chicago,IL,60614,170993001185,1620,150162990250047,46321,CPS,Regular,"District, non-alternative",HS,District,,HS,9th-12th,IB_Wall_to_Wall||JROTC||,43,7,Lincoln Park,5,10,5,Lincoln Park,29,10,170310712002007,41.8021046709,-87.6119314691,"(41.8021046709, -87.6119314691)"
400137,Little Black Pearl,Little Black Pearl Art and Design Academy,Little Black Pearl,Youth Connections Charter,1060,E,47th St,Chicago,IL,60653,170993003473,9054,15016299025004C,66622,Option,Contract,Alternative/Contract,HS,Contract,0,HS,10th-12th,NA||,4,39,Kenwood,13,25,7,Bronzeville,15,3,170313902002014,41.8096680576,-87.5993393939,"(41.8096680576, -87.5993393938999)"
,Lozano Leadership Academy - Mastery Campus,Instituto Charter Rudy Lozano - RLLAM,Lozano Leadership Academy - Mastery Campus,,2520,S,Western Ave,Chicago,IL,60608,,9628,,,Option,Charter -- Alt. Multi-site,Alternative/Charter,HS,Charter,,HS,9th,NA||,25,31,Lower West Side,1,2,4,Pilsen - Little Village,16,2,170318413002016,41.7526966442,-87.5508909663,"(41.7526966442, -87.5508909663)"
610574,"Mandela, W",Winnie Mandela High School,"Mandela, W",,,,,Chicago,IL,60649,,9639,,,Option,ALOP,Alternative/District,HS,District,,HS,,NA||,8,43,South Shore,3,5,2,South Shore,11,4,170314312001026,41.7520153166,-87.5759196738,"(41.7520153166, -87.5759196738)"
609722,Manley,Manley Career Academy High School,Manley,Manley Career Academy High School,2935,W,Polk St,Chicago,IL,60612,170993001125,1460,150162990250616,53111,CPS,Regular,"District, non-alternative",HS,District,,HS,9th-12th,CTE_CCA||JROTC||,28,27,East Garfield Park,5,9,7,Garfield - West Humboldt,20,2,170312718001015,41.9547635348,-87.6689894456,"(41.9547635348, -87.6689894456)"
610502,Marine Military,Marine Military Math and Science Academy,Marine Military,Marine Military Academy,145,S,Campbell Ave,Chicago,IL,60612,170993099985,1085,150162990250842,49151,CPS,Regular,"District, non-alternative",HS,District,,HS,9th-12th,Military||,2,28,Near West Side,5,10,7,Near West,23,1,170312808001010,41.8641432816,-87.7020776091,"(41.8641432816, -87.7020776091)"
609723,Marshall,John Marshall Metropolitan High School,Marshall,Marshall Metropolitan High School,3250,W,Adams St,Chicago,IL,60624,170993000972,1470,150162990250029,47041,CPS,Regular,"District, non-alternative",HS,District,,HS,9th-12th,CTE_CCA||JROTC||,28,27,East Garfield Park,5,10,7,Garfield - West Humboldt,20,1,170312713001004,41.9466720154,-87.6910127404,"(41.9466720153999, -87.6910127403999)"
609724,Mather,Stephen T Mather High School,Mather,Mather High School,5835,N,Lincoln Ave,Chicago,IL,60659,170993000977,1480,150162990250030,46241,CPS,Regular,"District, non-alternative",HS,District,,HS,9th-12th,CTE_CCA||AVID||,40,2,West Ridge,7,13,5,Ravenswood,30,10,170310207011000,41.8709663947,-87.6998962077,"(41.8709663946999, -87.6998962076999)"
610385,Multicultural Acad Scholarship,Multicultural Academy of Scholarship,Multicultural Acad Scholarship,Multicultural Acad of Scholarshp,3120,S,Kostner Ave,Chicago,IL,60623,170993005794,7630,150162990250836,55181,CPS,Regular,"District, non-alternative",HS,District,,HS,9th-12th,NA||,22,30,South Lawndale,11,21,4,Pilsen - Little Village,16,7,170318305001006,41.8360356836,-87.7341216359,"(41.8360356836, -87.7341216358999)"
400157,Noble Street  - Baker College Prep,Noble Street Charter Orange,Noble Street Chtr - Baker College Prep,,2710,E,89th St,Chicago,IL,60617,,9614,,,CPS,Charter,Charter,HS,Charter,Original Replicating Charters,HS,9th-12th,NA||,7,46,South Chicago,13,26,2,South Shore,11,4,170314606001016,41.7337060935,-87.5577592351,"(41.7337060934999, -87.5577592350999)"
400097,Noble Street  - Chgo Bulls,Noble Street Charter - Chicago Bulls College,Noble Street Chtr - Chgo Bulls,Noble Street Charter High School,2040,W,Adams St,Chicago,IL,60612,170993003479,8078,15016299025006C,66572,CPS,Charter,Charter,HS,Charter,Original Replicating Charters,HS,9th-12th,NA||,2,28,Near West Side,5,10,7,Near West,23,1,170318380001028,41.878781373,-87.6781944863,"(41.878781373, -87.6781944863)"
400053,Noble Street  - Golder,Noble Street Charter - Golder College Prep,Noble Street Chtr - Golder,Noble Street Charter High School,1454,W,Superior St,Chicago,IL,60642,170993003479,1934,15016299025006C,66145,CPS,Charter,Charter,HS,Charter,Original Replicating Charters,HS,9th-12th,NA||,27,24,West Town,2,4,5,Near North,10,8,170312433001004,41.8952547585,-87.6644822348,"(41.8952547585, -87.6644822348)"
400106,Noble Street  - Johnson,Noble Street Charter School Ã¢â¬â Johnson,Noble Street Chtr - Johnson,Noble Street Charter High School,6350,S,Stewart Ave,Chicago,IL,60621,,8028,15016299025006C,66148,CPS,Charter,Charter,HS,Charter,Original Replicating Charters,HS,9th-12th,NA||,20,68,Englewood,3,6,1,Englewood,4,2,170316809002014,41.7783700537,-87.6350800446,"(41.7783700537, -87.6350800446)"
400098,Noble Street  - Muchin,Noble Street Charter - Muchin College Prep,Noble Street Chtr - Muchin,Noble Street Charter High School,1,N,State St,Chicago,IL,60602,170993003479,8079,15016299025006C,66573,CPS,Charter,Charter,HS,Charter,Original Replicating Charters,HS,9th-12th,NA||,42,32,Loop,3,5,7,Loop,1,2,170313201001017,41.8820856511,-87.6277411126,"(41.8820856510999, -87.6277411126)"
400051,Noble Street  - Noble,Noble Street Charter - Noble Street College Prep,Noble Street Chtr - Noble,Noble Street Charter High School,1010,N,Noble St,Chicago,IL,60642,170993003479,1930,15016299025006C,66141,CPS,Charter,Charter,HS,Charter,Original Replicating Charters,HS,9th-12th,NA||,27,24,West Town,2,4,5,Near North,10,1,170312420001004,41.9001910322,-87.6625910573,"(41.9001910321999, -87.6625910573)"
400054,Noble Street  - Pritzker,Noble Street Charter - Pritzker College Prep,Noble Street Chtr - Pritzker,Noble Street Charter High School,4131,W,Cortland Ave,Chicago,IL,60639,170993003479,1931,15016299025006C,66142,CPS,Charter,Charter,HS,Charter,Original Replicating Charters,HS,9th-12th,NA||,30,20,Hermosa,2,4,4,Logan,9,8,170318312003014,41.9152415489,-87.7301268313,"(41.9152415488999, -87.7301268312999)"
400156,Noble Street  - Pullman College Prep,Noble Street Charter  Crimson,Noble Street Chtr - Pullman College Prep,,821,E,103rd St,Chicago,IL,60628,,9613,,,CPS,Charter,Charter,HS,Charter,Original Replicating Charters,HS,9th-12th,NA||,9,50,Pullman,17,34,2,Far South Side,22,4,170315002001003,41.7074460748,-87.6030643545,"(41.7074460748, -87.6030643545)"
400118,Noble Street  - Purple,Noble Street Charter School - Purple,Noble Street Chtr - Purple,Noble Street Charter High School,931,S,Homan Ave,Chicago,IL,60624,,9035,15016299025006C,66575,CPS,Charter,Charter,HS,Charter,Original Replicating Charters,HS,9th-10th,NA||,24,29,North Lawndale,5,9,7,North Lawndale,19,2,170318430001001,41.8693119927,-87.7105633272,"(41.8693119926999, -87.7105633272)"
400055,Noble Street  - Rauner,Noble Street Charter - Rauner College Prep,Noble Street Chtr - Rauner,Noble Street Charter High School,1337,W,Ohio,Chicago,IL,60642,170993003479,1932,15016299025006C,66143,CPS,Charter,Charter,HS,Charter,Original Replicating Charters,HS,9th-12th,NA||,27,24,West Town,2,4,5,Near North,10,1,170312434003006,41.8924524492,-87.6608595527,"(41.8924524492, -87.6608595527)"
400056,Noble Street  - Rowe Clark,Noble Street Charter - Rowe-Clark Math & Sci Acad,Noble Street Chtr - Rowe Clark,Noble Street Charter High School,3645,W,Chicago Ave,Chicago,IL,60651,170993003479,1933,15016299025006C,66144,CPS,Charter,Charter,HS,Charter,Original Replicating Charters,HS,9th-12th,NA||,27,23,Humboldt Park,5,10,7,Garfield - West Humboldt,20,1,170312315004004,41.8953896977,-87.7180473,"(41.8953896976999, -87.7180472999999)"
400117,Noble Street  - Silver,Noble Street Charter School - Silver,Noble Street Chtr - Silver,Noble Street Charter High School,8748,S,Aberdeen St,Chicago,IL,60620,,9034,15016299025006C,66574,CPS,Charter,Charter,HS,Charter,Original Replicating Charters,HS,9th-10th,NA||,21,71,Auburn Gresham,14,27,1,Auburn Gresham,5,4,170317114002009,41.7344423064,-87.6509501031,"(41.7344423063999, -87.6509501031)"
400057,Noble Street  - Uic,Noble Street Charter - UIC College Prep,Noble Street Chtr - Uic,Noble Street Charter High School,1231,S,Damen Ave,Chicago,IL,60608,170993003479,1936,15016299025006C,66147,CPS,Charter,Charter,HS,Charter,Original Replicating Charters,HS,9th-12th,NA||,2,28,Near West Side,5,9,7,Near West,23,2,170318429004028,41.8658167124,-87.676147629,"(41.8658167123999, -87.6761476289999)"
609691,North-grand,North-Grand High School,North-grand,North-Grand High School,4338,W,Wabansia Ave,Chicago,IL,60639,170993005074,1140,150162990250825,46431,CPS,Regular,"District, non-alternative",HS,District,,HS,9th-12th,CTE_Neighborhood||,31,23,Humboldt Park,2,4,4,Humboldt Park,21,8,170312305002003,41.901546153,-87.6344637276,"(41.9015461529999, -87.6344637275999)"
609744,Northside Learning,Northside Learning Center High School,Northside Learning,Northside Learning Center,3730,W,Bryn Mawr Ave,Chicago,IL,60659,170993000999,1690,150162990253743,49021,CPS,Regular,"District, Special Ed.",HS,District,,HS,9th-12th,NA||,39,13,North Park,8,15,5,Albany Irving,27,10,170311301002015,41.8989952772,-87.6674461466,"(41.8989952772, -87.6674461466)"
609749,Northside Prep,Northside College Preparatory High School,Northside Prep,Northside College Preparatory,5501,N,Kedzie Ave,Chicago,IL,60625,170993003481,1740,150162990250794,46061,CPS,Regular,"District, non-alternative",HS,District,,HS,9th-12th,Selective_Enrollment||CTE_Neighborhood||,40,13,North Park,7,13,5,Albany Irving,27,12,170318318005000,41.8037718312,-87.5904575635,"(41.8037718312, -87.5904575634999)"
400058,Nth Lawndale  - Christiana,North Lawndale College Prep Charter - Christiana,Nth Lawndale Chtr - Christiana,North Lawndale Charter,1616,S,Spaulding Ave,Chicago,IL,60623,170993003474,1105,15016299025005C,66091,CPS,Charter,Charter,HS,Charter,Original Replicating Charters,HS,9th-12th,NA||,24,29,North Lawndale,5,9,7,North Lawndale,19,2,170318415002021,41.8585191307,-87.7079522423,"(41.8585191307, -87.7079522422999)"
400059,Nth Lawndale  - Collins,North Lawndale College Prep Charter - Collins,Nth Lawndale Chtr - Collins,North Lawndale Charter,1313,S,Sacramento Dr,Chicago,IL,60623,170993003474,1106,15016299025005C,66092,CPS,Charter,Charter,HS,Charter,Original Replicating Charters,HS,9th-12th,NA||,24,29,North Lawndale,5,9,7,North Lawndale,19,2,170318431001005,41.8641432816,-87.7020776091,"(41.8641432816, -87.7020776091)"
610569,Ombudsman 1,Ombudsman #1,Ombudsman 1,,,,,Chicago,IL,60629,,9634,,,Option,ALOP,Alternative/District,HS,District,,HS,,NA||,15,66,Chicago Lawn,1,1,7,Chicago Lawn,8,7,170316604002015,41.8664504127,-87.7066031328,"(41.8664504126999, -87.7066031327999)"
610570,Ombudsman 2,Ombudsman #2,Ombudsman 2,,,,,Chicago,IL,60631,,9635,,,Option,ALOP,Alternative/District,HS,District,,HS,,NA||,41,9,Edison Park,10,20,9,Sauganash,28,9,170310901001001,41.7668209818,-87.5858670779,"(41.7668209818, -87.5858670779)"
610571,Ombudsman 3,Ombudsman #3,Ombudsman 3,,,,,Chicago,IL,60640,,9636,,,Option,ALOP,Alternative/District,HS,District,,HS,,NA||,46,3,Uptown,7,13,9,Ravenswood,30,10,170310311001004,41.9394057688,-87.7052061096,"(41.9394057688, -87.7052061095999)"
610389,Orr,Orr Academy High School,Orr,Orr Academy High School,730,N,Pulaski Rd,Chicago,IL,60624,170993005179,1830,150162990250847,28151,CPS,Regular,"District, non-alternative",HS,District,,HS,9th-12th,NA||,28,23,Humboldt Park,5,10,7,Garfield - West Humboldt,20,1,170318421005012,41.8360356836,-87.7341216359,"(41.8360356836, -87.7341216358999)"
610557,Pathways Education,Pathways in Education,Pathways Education,Pathways in Education,3270,W,87th St,Chicago,IL,60652,170993006178,8687,150162990253794,66301,Option,ALOP,Alternative/District,HS,District,,HS,11th-12th,NA||,18,70,Ashburn,16,31,1,Ashburn,6,3,170317004023025,41.8685484458,-87.6649682523,"(41.8685484458, -87.6649682523)"
610568,Pathways Education - Avondale,Pathways in Education Avondale,Pathways Education - Avondale,,3100,W,Belmont,Chicago,IL,60618,,9633,,,Option,ALOP,Alternative/District,HS,District,,HS,10th-12th,NA||,33,21,Avondale,20,40,4,Logan,9,8,170312101002020,41.7638954212,-87.6491609928,"(41.7638954211999, -87.6491609928)"
609680,Payton,Walter Payton College Preparatory High School,Payton,Payton College Preparatory,1034,N,Wells St,Chicago,IL,60610,170993003989,1090,150162990250796,70020,CPS,Regular,"District, non-alternative",HS,District,,HS,9th-12th,Selective_Enrollment||,27,8,Near North Side,5,9,7,Loop,1,2,170318383002003,41.8730667,-87.6276386215,"(41.8730667, -87.6276386214999)"
610386,Peace & Education,Peace & Education Coalition High School,Peace & Education,Peace And Education Coalition,4946,S,Paulina St,Chicago,IL,60609,170993002596,1123,150162990253784,67021,Option,CPS,Alternative/District,HS,District,,HS,10th-12th,NA||,16,61,New City,3,6,7,McKinley Park,17,7,170316113003011,41.8360356836,-87.7341216359,"(41.8360356836, -87.7341216358999)"
400062,Perspectives  - Calumet Tech,Perspectives Charter - Calumet Technology,Perspectives Chtr - Calumet Tech,Perspectives Charter High School,8131,S,May St,Chicago,IL,60620,170993003450,1962,15016299025003C,66053,CPS,Charter,Charter,HS,Charter,Original Replicating Charters,HS,9th-12th,NA||,21,71,Auburn Gresham,16,31,1,Auburn Gresham,5,4,170317108006008,41.7459346287,-87.6523281373,"(41.7459346286999, -87.6523281373)"
609727,Phillips,Wendell Phillips Academy High School,Phillips,Phillips Academy High School,244,E,Pershing Rd,Chicago,IL,60653,170993001061,1510,150162990250034,46261,CPS,Regular,"District, non-alternative",HS,District,,HS,9th-12th,AVID||JROTC||,3,35,Douglas,3,5,1,Bronzeville,15,3,170318396002013,41.6920111236,-87.6656755724,"(41.6920111235999, -87.6656755724)"
610304,Phoenix Military,Phoenix Military Academy High School,Phoenix Military,Phoenix Military Academy,145,S,Campbell Ave,Chicago,IL,60612,170993004715,7310,150162990250803,55011,CPS,Regular,"District, non-alternative",HS,District,,HS,9th-12th,Military||,2,28,Near West Side,5,10,7,Near West,23,1,170312808001010,41.7653075455,-87.6413336828,"(41.7653075455, -87.6413336827999)"
400070,Prologue,Prologue Early College High School,Prologue,Prologue Early College CONTR,1135,N,Cleaver Rd,Chicago,IL,60622,170993005932,1135,150162990253788,66491,Option,Contract,Alternative/Contract,HS,Contract,0,HS,9th-12th,NA||,27,24,West Town,5,10,7,Near North,10,1,170312420003000,41.9028970912,-87.6637407343,"(41.9028970912, -87.6637407343)"
400109,Prologue-johnston ,Prologue-Joshua Johnston Charter School,Prologue-johnston Chtr,Prologue - Johnston Fine Arts,1551,W,95th St,Chicago,IL,60643,170993006113,8670,15016299025017C,66581,Option,Charter,Alternative/Charter,HS,Charter,Non-replicating  Charters,HS,9th-12th,NA||,21,73,Washington Heights,18,35,1,Auburn Gresham,5,4,170317304002006,41.7211638933,-87.6624163144,"(41.7211638933, -87.6624163144)"
609679,Prosser,Charles Allen Prosser Career Academy High School,Prosser,Prosser Career Academy,2148,N,Long Ave,Chicago,IL,60639,170993000681,1070,150162990250534,53041,CPS,Regular,"District, non-alternative",HS,District,,HS,9th-12th,IB||CTE_CCA||JROTC||,37,19,Belmont Cragin,2,3,4,Belmont Cragin,26,8,170311912002000,41.8402261095,-87.6176007457,"(41.8402261095, -87.6176007457)"
610334,Raby,Al Raby High School,Raby,Raby High School,3545,W,Fulton Blvd,Chicago,IL,60624,170993005075,7690,150162990250826,46471,CPS,Regular,"District, non-alternative",HS,District,,HS,9th-12th,CTE_CCA||,28,27,East Garfield Park,5,10,7,Garfield - West Humboldt,20,1,170318368001018,41.9339427618,-87.7080400419,"(41.9339427617999, -87.7080400419)"
609682,Richards,Ellen H Richards Career Academy High School,Richards,Richards Career Academy,5009,S,Laflin St,Chicago,IL,60609,170993000718,1110,150162990250536,53051,CPS,Regular,"District, non-alternative",HS,District,,HS,9th-12th,CTE_CCA||,16,61,New City,3,6,7,McKinley Park,17,7,170316112002020,41.9200600619,-87.7610115834,"(41.9200600619, -87.7610115834)"
610390,Rickover,Hyman G Rickover Naval Academy High School,Rickover,Rickover Naval Academy High Schl,5900,N,Glenwood Ave,Chicago,IL,60660,170993005078,7140,150162990250828,45221,CPS,Regular,"District, non-alternative",HS,District,,HS,9th-12th,Military||,48,77,Edgewater,7,14,9,Ravenswood,30,10,170310305002008,41.8035152649,-87.6673410967,"(41.8035152649, -87.6673410967)"
609707,Robeson,Paul Robeson High School,Robeson,Robeson High School,6835,S,Normal Blvd,Chicago,IL,60621,170993000967,1320,150162990250766,46121,CPS,Regular,"District, non-alternative",HS,District,,HS,9th-12th,AVID||,6,68,Englewood,16,32,1,Englewood,4,3,170316812003013,41.8485592149,-87.7087423234,"(41.8485592149, -87.7087423234)"
609728,Roosevelt,Theodore Roosevelt High School,Roosevelt,Roosevelt High School,3436,W,Wilson Ave,Chicago,IL,60625,170993001093,1520,150162990250035,46271,CPS,Regular,"District, non-alternative",HS,District,,HS,9th-12th,CTE_CCA||AVID||JROTC||,33,14,Albany Park,20,40,4,Albany Irving,27,8,170311407023000,41.6927350913,-87.6163519043,"(41.6927350913, -87.6163519043)"
610297,School Of Leadrshp,High School of Leadership at South Shore,School Of Leadrshp,School of Leadership High School,7627,S,Constance Ave,Chicago,IL,60649,170993005665,7230,150162990250806,55081,CPS,Regular,"District, non-alternative",HS,District,,HS,12th,NA||,8,43,South Shore,3,5,1,South Shore,11,4,170318342002012,41.8788263693,-87.7246619234,"(41.8788263693, -87.7246619234)"
609729,Schurz,Carl Schurz High School,Schurz,Schurz High School,3601,N,Milwaukee Ave,Chicago,IL,60641,170993001111,1530,150162990250036,46281,CPS,Regular,"District, non-alternative",HS,District,,HS,9th-12th,IB||CTE_CCA||AVID||JROTC||,38,16,Irving Park,20,40,5,Albany Irving,27,12,170311611002015,41.8238525306,-87.6197957432,"(41.8238525306, -87.6197957432)"
609730,Senn,Nicholas Senn High School,Senn,Senn High School,5900,N,Glenwood Ave,Chicago,IL,60660,170993001114,1540,150162990250037,47061,CPS,Regular,"District, non-alternative",HS,District,,HS,9th-12th,Magnet_Cluster||Fine and Performing Arts||IB_Wall_to_Wall||JROTC||,48,77,Edgewater,7,14,9,Ravenswood,30,10,170310305002008,41.9648004455,-87.7148181431,"(41.9648004455, -87.7148181431)"
400073,Shabazz  - Dusable,Betty Shabazz Intl Charter - DuSable Leadership,Shabazz Chtr - Dusable,Shabazz International Chrtr Schls,4934,S,Wabash Ave,Chicago,IL,60615,170993003539,4140,15016299025203C,66311,CPS,Charter,Charter,HS,Charter,Original Replicating Charters,HS,10th-12th,NA||,3,38,Grand Boulevard,3,5,7,Bronzeville,15,3,170313818001010,41.8045587817,-87.6244105627,"(41.8045587817, -87.6244105627)"
609692,Simeon,Neal F Simeon Career Academy High School,Simeon,Simeon Career Academy High School,8147,S,Vincennes Ave,Chicago,IL,60620,170993000758,1150,150162990250537,53061,CPS,Regular,"District, non-alternative",HS,District,,HS,9th-12th,CTE_CCA||JROTC||,21,44,Chatham,16,31,1,Auburn Gresham,5,4,170318424003036,41.8028808659,-87.6623145151,"(41.8028808659, -87.6623145150999)"
609750,Simpson,Simpson Academy High School for Young Women,Simpson,Simpson Acad for Young Women,1321,S,Paulina St,Chicago,IL,60608,170993004383,1750,150162990253732,49051,Option,CPS,Alternative/District,HS,District,,HS,10th-12th,NA||,2,28,Near West Side,5,9,7,Near West,23,2,170318429004065,41.8425338464,-87.695224323,"(41.8425338464, -87.695224323)"
610543,Solorio,Eric Solorio Academy High School,Solorio,Zaragoza High School,5400,S,St Louis Ave,Chicago,IL,60632,,8550,150162990250859,46101,CPS,Regular,"District, non-alternative",HS,District,,HS,9th-12th,NA||,14,63,Gage Park,11,22,4,McKinley Park,17,7,170316303002008,41.940043132,-87.7248117416,"(41.940043132, -87.7248117416)"
610547,South Shore Intl,South Shore Intl College Prep High School,South Shore Intl,South Shore Intl Col Prep,1955,E,75th St,Chicago,IL,60649,,8676,150162990250860,46631,CPS,Regular,"District, non-alternative",HS,District,,HS,9th-11th,Selective_Enrollment||IB||CTE_CCA||JROTC||,8,43,South Shore,3,5,1,South Shore,11,4,170318342002000,41.7952016621,-87.7110221811,"(41.7952016620999, -87.7110221811)"
609745,Southside,Southside Occupational Academy High School,Southside,Southside Occupational Acad,7342,S,Hoyne Ave,Chicago,IL,60636,170993005305,1700,150162990253765,49031,CPS,Regular,"District, Special Ed.",HS,District,,HS,9th-12th,NA||,17,67,West Englewood,16,31,1,Englewood,4,3,170316720004008,41.7805269301,-87.7179770874,"(41.7805269301, -87.7179770874)"
610357,Spry,Spry Community Links High School,Spry,Spry Community Links High School,2400,S,Marshall Blvd,Chicago,IL,60623,170993005677,7930,150162990250818,46461,CPS,Regular,"District, non-alternative",HS,District,,HS,9th-12th,NA||,12,30,South Lawndale,11,21,4,Pilsen - Little Village,16,7,170313011001004,41.9617218111,-87.7071139758,"(41.9617218110999, -87.7071139757999)"
609732,Steinmetz College Prep,Charles P Steinmetz College Preparatory,Steinmetz College Prep,Steinmetz College Prep,3030,N,Mobile Ave,Chicago,IL,60634,170993001139,1560,150162990250041,46291,CPS,Regular,"District, non-alternative",HS,District,,HS,9th-12th,IB||AVID||JROTC||CTE_Neighborhood||,36,19,Belmont Cragin,2,3,5,Belmont Cragin,26,9,170311904011023,41.9463432311,-87.7356352652,"(41.9463432311, -87.7356352652)"
609733,Sullivan,Roger C Sullivan High School,Sullivan,Sullivan High School,6631,N,Bosworth Ave,Chicago,IL,60626,170993001149,1570,150162990250042,46301,CPS,Regular,"District, non-alternative",HS,District,,HS,9th-12th,CTE_CCA||JROTC||,40,1,Rogers Park,7,14,9,Ravenswood,30,10,170318306001000,41.9890331928,-87.6651879968,"(41.9890331928, -87.6651879968)"
610506,Team,TEAM Englewood Community Academy High School,Team,Team Englewood Comm Acad,6201,S,Stewart Ave,Chicago,IL,60621,170993005916,8080,150162990250843,49161,CPS,Regular,"District, non-alternative",HS,District,,HS,9th-12th,JROTC||,20,68,Englewood,3,5,1,Englewood,4,2,170318346003043,41.8670136515,-87.7263136989,"(41.8670136515, -87.7263136989)"
609735,Tilden,Edward Tilden Career Community Academy,Tilden,Tilden Career Communty Academy,4747,S,Union Ave,Chicago,IL,60609,170993001161,1590,150162990250044,53121,CPS,Regular,"District, non-alternative",HS,District,,HS,9th-12th,JROTC||CTE_Neighborhood||,11,61,New City,3,6,3,McKinley Park,17,11,170318438001007,42.0026869267,-87.6692289262,"(42.0026869267, -87.6692289262)"
400085,Uno  - Major Hector P.Garcia,UNO Charter School - Major Hector P.Garcia MD Campus,Uno Chtr - Major Hector P.Garcia,UNO Network Charter Schools,4248,W,47th St,Chicago,IL,60632,170993003555,3343,15016299025205C,66394,CPS,Charter,Charter,HS,Charter,Original Replicating Charters,HS,9th-12th,NA||,14,57,Archer Heights,1,1,4,McKinley Park,17,11,170315702001016,41.8078400696,-87.7303591385,"(41.8078400695999, -87.7303591385)"
610394,Uplift,Uplift Community High School,Uplift,Uplift Community High School,900,W,Wilson Ave,Chicago,IL,60640,170993005787,2210,150162990250829,26861,CPS,Regular,"District, non-alternative",HS,District,,HS,9th-12th,NA||,46,3,Uptown,7,13,9,Ravenswood,30,10,170310315013003,41.7820414043,-87.6716251948,"(41.7820414043, -87.6716251948)"
400105,Urban Prep  - Bronzeville,Urban Prep Academy for Young Men - Bronzeville,Urban Prep Chtr - Bronzeville,Urban Prep Chtr Acad Bronzeville,2710,S,Dearborn St,Chicago,IL,60616,,8027,15016299025013C,66442,CPS,Charter,Charter,HS,Charter,Non-replicating  Charters Multi-charter,HS,9th-12th,NA||,3,35,Douglas,3,6,7,Bronzeville,15,3,170313504001003,41.8440435791,-87.6285167492,"(41.8440435791, -87.6285167492)"
400086,Urban Prep  - Englewood,Urban Prep Acad for Young Men Charter - Englewood,Urban Prep Chtr - Englewood,Urban Prep Chtr Acad Englewood,6201,S,Stewart Ave,Chicago,IL,60621,170993099979,7030,15016299025010C,66441,CPS,Charter,Charter,HS,Charter,Non-replicating  Charters Multi-charter,HS,9th-12th,NA||,20,68,Englewood,3,5,1,Englewood,4,2,170318346003043,41.7815051901,-87.6350153385,"(41.7815051900999, -87.6350153384999)"
400102,Urban Prep  - West,Urban Prep Academy for Young Men - West,Urban Prep Chtr - West,Urban Prep Chtr Acad West Campus,1326,W,14th Pl,Chicago,IL,60608,170993006094,8096,15016299025016C,63071,CPS,Charter,Charter,HS,Charter,Non-replicating  Charters Multi-charter,HS,9th-12th,NA||,2,28,Near West Side,5,9,7,Near West,23,2,170318429003010,41.8625125846,-87.6601057206,"(41.8625125845999, -87.6601057206)"
609766,Vaughn,Jacqueline B Vaughn Occupational High School,Vaughn,Vaughn Occupational High School,4355,N,Linder Ave,Chicago,IL,60641,170993001018,1920,150162990253753,49081,CPS,Regular,"District, Special Ed.",HS,District,,HS,9th-12th,CTE_Neighborhood||,38,15,Portage Park,10,19,5,Albany Irving,27,12,170311503006015,41.7058594383,-87.653712597,"(41.7058594383, -87.6537125969999)"
610518,Voise,VOISE Academy High School,Voise,VOISE Academy High School,231,N,Pine Ave,Chicago,IL,60644,170993005984,1145,150162990250844,46621,CPS,Regular,"District, non-alternative",HS,District,,HS,9th-12th,AVID||,28,25,Austin,4,8,7,Austin,25,1,170312519003008,41.8281457906,-87.6327202982,"(41.8281457905999, -87.6327202981999)"
609737,Von Steuben,Friedrich W von Steuben Metropolitan Science,Von Steuben,Von Steuben Metro Science,5039,N,Kimball Ave,Chicago,IL,60625,170993001180,1610,150162990250046,47081,CPS,Regular,"District, non-alternative",HS,District,,HS,9th-12th,Magnet||,39,13,North Park,8,15,5,Albany Irving,27,12,170318318004000,41.8075094709,-87.6430031536,"(41.8075094709, -87.6430031536)"
609739,Washington,George Washington High School,Washington,Washington  G High School,3535,E,114th St,Chicago,IL,60617,170993001189,1630,150162990250048,46331,CPS,Regular,"District, non-alternative",HS,District,,HS,9th-12th,IB||CTE_CCA||,10,52,East Side,13,25,2,Far East Side,2,4,170315206001060,41.9731844483,-87.7134230181,"(41.9731844483, -87.7134230181)"
609740,Wells,Wells Community Academy High School,Wells,Wells Community Academy,936,N,Ashland Ave,Chicago,IL,60622,170993001192,1640,150162990250049,51071,CPS,Regular,"District, non-alternative",HS,District,,HS,9th-12th,CTE_CCA||AVID||JROTC||,1,24,West Town,2,4,5,Near North,10,1,170312421003000,41.9182675643,-87.6460460883,"(41.9182675643, -87.6460460882999)"
609693,Westinghouse,George Westinghouse College Prep,Westinghouse,Westinghouse High School,3223,W,Franklin Blvd,Chicago,IL,60624,170993000798,1160,150162990250857,53071,CPS,Regular,"District, non-alternative",HS,District,,HS,9th-12th,Selective_Enrollment||CTE_CCA||JROTC||,28,23,Humboldt Park,5,10,7,Garfield - West Humboldt,20,1,170318367001031,41.9116462562,-87.7352368523,"(41.9116462562, -87.7352368523)"
610380,"Williams, D",Daniel Hale Williams Prep School of Medicine,"Williams, D",Williams Medical Prep High Sch,4934,S,Wabash Ave,Chicago,IL,60615,170993005804,7200,150162990250856,55161,CPS,Regular,"District, non-alternative",HS,District,,HS,9th-12th,CTE_CCA||AVID||,3,38,Grand Boulevard,3,5,7,Bronzeville,15,3,170313818001010,41.7053148833,-87.6298680343,"(41.7053148832999, -87.6298680343)"
610392,World Language,World Language Academy High School,World Language,World Language High School,3120,S,Kostner Ave,Chicago,IL,60623,170993005788,4460,150162990250830,52011,CPS,Regular,"District, non-alternative",HS,District,,HS,9th-12th,NA||,22,30,South Lawndale,11,21,4,Pilsen - Little Village,16,7,170318305001006,41.9890331928,-87.6651879968,"(41.9890331928, -87.6651879968)"
400134,Yccs  - Addams,YCCS-Jane Addams Alternative,Yccs Chtr - Addams,Youth Connections Charter,1814,S,Union Ave,Chicago,IL,60616,170993003473,9051,15016299025004C,66618,Option,Charter -- YCCS,Alternative/Charter,HS,Charter,Original Replicating Charters,HS,10th-12th,NA||,25,31,Lower West Side,1,2,4,Pilsen - Little Village,16,7,170313102002009,41.8572081061,-87.6448512711,"(41.8572081061, -87.6448512710999)"
400125,Yccs  - Aspira Pantoja,"YCCS-ASPIRA,Antonia Pantoja Alternative",Yccs Chtr - Aspira Pantoja,Youth Connections Charter,3121,N,Pulaski Rd,Chicago,IL,60641,170993003473,9042,15016299025004C,66108,Option,Charter -- YCCS,Alternative/Charter,HS,Charter,Original Replicating Charters,HS,10th-12th,NA||,31,21,Avondale,20,39,4,Logan,9,8,170312105012024,41.9379166697,-87.7270766439,"(41.9379166697, -87.7270766439)"
400126,Yccs  - Association House,"YCCS-Association House, El Cuarto Ano",Yccs Chtr - Association House,Youth Connections Charter,1116,N,Kedzie Ave,Chicago,IL,60651,170993003473,9043,15016299025004C,66109,Option,Charter -- YCCS,Alternative/Charter,HS,Charter,Original Replicating Charters,HS,10th-12th,NA||,26,23,Humboldt Park,2,4,4,Humboldt Park,21,8,170318366002008,41.9015730771,-87.7068231621,"(41.9015730770999, -87.7068231620999)"
400127,Yccs  - Austin Career,YCCS-Austin Career Education Center,Yccs Chtr - Austin Career,Youth Connections Charter,5352,W,Chicago Ave,Chicago,IL,60651,170993003473,9044,15016299025004C,66611,Option,Charter -- YCCS,Alternative/Charter,HS,Charter,Original Replicating Charters,HS,10th-12th,NA||,37,25,Austin,4,8,7,Austin,25,1,170312512003009,41.8949489511,-87.7602207293,"(41.8949489510999, -87.7602207293)"
400131,Yccs  - Campos,YCCS-Dr. Pedro Albizu Campos Puerto Rican,Yccs Chtr - Campos,Youth Connections Charter,2739,W,Division St,Chicago,IL,60622,170993003473,9601,15016299025004C,66615,Option,Charter -- YCCS,Alternative/Charter,HS,Charter,Original Replicating Charters,HS,10th-12th,NA||,26,24,West Town,2,4,4,Humboldt Park,21,8,170312426002001,41.9028771378,-87.6960063547,"(41.9028771377999, -87.6960063547)"
400128,Yccs  - Cca Academy,YCCS-CCA Academy,Yccs Chtr - Cca Academy,Youth Connections Charter,1231,S,Pulaski Rd,Chicago,IL,60623,,9045,15016299025004C,66612,Option,Charter -- YCCS,Alternative/Charter,HS,Charter,Original Replicating Charters,HS,10th-12th,NA||,24,29,North Lawndale,5,9,7,North Lawndale,19,2,170318387003008,41.8651973419,-87.7250663893,"(41.8651973419, -87.7250663892999)"
400150,Yccs  - Chatham,YCCS-Chatham Academy,Yccs Chtr - Chatham,Youth Connections Charter,9035,S,Langley Ave,Chicago,IL,60619,,9599,15016299025004C,66631,Option,Charter -- YCCS,Alternative/Charter,HS,Charter,Original Replicating Charters,HS,10th-12th,NA||,6,44,Chatham,17,34,1,Chatham,12,4,170314409001015,41.730130933,-87.6070165377,"(41.7301309329999, -87.6070165377)"
400145,Yccs  - Community Academy,YCCS-Youth Connection Leadership Academy,Yccs Chtr - Community Academy,Youth Connections Charter,3424,S,State St,Chicago,IL,60616,170993003473,9062,15016299025004C,66629,Option,Charter -- YCCS,Alternative/Charter,HS,Charter,Original Replicating Charters,HS,10th-12th,NA||,3,35,Douglas,3,6,1,Bronzeville,15,3,170318420002008,41.8320716346,-87.6267447821,"(41.8320716345999, -87.6267447821)"
400123,Yccs  - Community Service,YCCS-Academy of Scholastic Achievement,Yccs Chtr - Community Service,Youth Connections Charter,4651,W,Madison St,Chicago,IL,60644,170993003473,9040,15016299025004C,66106,Option,Charter -- YCCS,Alternative/Charter,HS,Charter,Original Replicating Charters,HS,10th-12th,NA||,28,25,Austin,5,10,7,Austin,25,1,170312522021001,41.8804746267,-87.7425394305,"(41.8804746267, -87.7425394305)"
400129,Yccs  - Houston,YCCS-Charles Hamilton Houston Alternative,Yccs Chtr - Houston,Youth Connections Charter,4701,S,King Dr,Chicago,IL,60615,170993003473,9046,15016299025004C,66613,Option,Charter -- YCCS,Alternative/Charter,HS,Charter,Original Replicating Charters,HS,10th-12th,NA||,3,38,Grand Boulevard,13,26,7,Bronzeville,15,3,170313812002018,41.8093305545,-87.6165139708,"(41.8093305545, -87.6165139708)"
400133,Yccs  - Innovations,YCCS-Innovations of Arts Integration,Yccs Chtr - Innovations,Youth Connections Charter,220,W,45th Pl,Chicago,IL,60609,170993003473,9602,15016299025004C,66617,Option,Charter -- YCCS,Alternative/Charter,HS,Charter,Original Replicating Charters,HS,10th-12th,NA||,3,37,Fuller Park,3,6,7,Bronzeville,15,2,170318355002027,41.8118176344,-87.631990875,"(41.8118176344, -87.631990875)"
400135,Yccs  - Latino Youth,YCCS-Latino Youth Alternative,Yccs Chtr - Latino Youth,Youth Connections Charter,2001,S,California Ave,Chicago,IL,60608,170993003473,9052,15016299025004C,66619,Option,Charter -- YCCS,Alternative/Charter,HS,Charter,Original Replicating Charters,HS,10th-12th,NA||,28,30,South Lawndale,5,9,4,Pilsen - Little Village,16,7,170318407003002,41.8546639311,-87.6954667066,"(41.8546639310999, -87.6954667066)"
400124,Yccs  - Mckinley,YCCS-Ada S. McKinley-Lakeside,Yccs Chtr - Mckinley,Youth Connections Charter,2920,S,Wabash Ave,Chicago,IL,60616,170993003473,9041,15016299025004C,66107,Option,Charter -- YCCS,Alternative/Charter,HS,Charter,Original Replicating Charters,HS,10th-12th,NA||,2,35,Douglas,3,5,7,Bronzeville,15,3,170318392002018,41.841331691,-87.62529408,"(41.841331691, -87.62529408)"
400136,Yccs  - Olive Harvey,YCCS-Olive Harvey Middle College,Yccs Chtr - Olive Harvey,Youth Connections Charter,10001,S,Woodlawn Ave,Chicago,IL,60628,170993003473,9053,15016299025004C,66621,Option,Charter -- YCCS,Alternative/Charter,HS,Charter,Original Replicating Charters,HS,10th-12th,NA||,8,50,Pullman,17,34,2,Chatham,12,4,170315001004011,41.7129281791,-87.592368917,"(41.7129281790999, -87.592368917)"
400139,Yccs  - Sullivan,YCCS-Sullivan House Alternative,Yccs Chtr - Sullivan,Youth Connections Charter,8164,S,South Chicago Ave,Chicago,IL,60617,170993003473,9056,15016299025004C,66623,Option,Charter -- YCCS,Alternative/Charter,HS,Charter,Original Replicating Charters,HS,10th-12th,NA||,8,45,Avalon Park,17,33,1,Chatham,12,4,170314503001027,41.7463063442,-87.5784662625,"(41.7463063442, -87.5784662625)"
400141,Yccs  - Truman,YCCS-Truman Middle College,Yccs Chtr - Truman,Youth Connections Charter,1145,W,Wilson Ave,Chicago,IL,60640,170993003473,9058,15016299025004C,66625,Option,Charter -- YCCS,Alternative/Charter,HS,Charter,Original Replicating Charters,HS,10th-12th,NA||,46,3,Uptown,7,13,9,Ravenswood,30,10,170318307004006,41.9653222409,-87.6592405985,"(41.9653222409, -87.6592405985)"
400142,Yccs  - Virtual,YCCS-Virtual,Yccs Chtr - Virtual,Youth Connections Charter,1900,W,Van Buren St,Chicago,IL,60612,170993003473,9059,15016299025004C,66626,Option,Charter -- YCCS,Alternative/Charter,HS,Charter,Original Replicating Charters,HS,10th-12th,NA||,2,28,Near West Side,5,9,7,Near West,23,2,170318381002034,41.8762892935,-87.6741375555,"(41.8762892935, -87.6741375554999)"
400143,Yccs  - West Town,YCCS-West Town Academy Alternative,Yccs Chtr - West Town,Youth Connections Charter,500,N,Sacramento Blvd,Chicago,IL,60612,170993003473,9603,15016299025004C,66627,Option,Charter -- YCCS,Alternative/Charter,HS,Charter,Original Replicating Charters,HS,10th-12th,NA||,27,23,Humboldt Park,5,10,7,Garfield - West Humboldt,20,1,170318367002033,41.8908064653,-87.7020163486,"(41.8908064653, -87.7020163485999)"
400144,Yccs  - Westside Holistic,YCCS-Westside Holistic Leadership Academy,Yccs Chtr - Westside Holistic,Youth Connections Charter,4909,W,Division St,Chicago,IL,60651,170993003473,9604,15016299025004C,66628,Option,Charter -- YCCS,Alternative/Charter,HS,Charter,Original Replicating Charters,HS,10th-12th,NA||,37,25,Austin,4,8,7,Austin,25,1,170312511001000,41.9022674727,-87.748810694,"(41.9022674726999, -87.7488106939999)"
400130,Yccs  - Youth Development,YCCS-Community Youth Development Institute,Yccs Chtr - Youth Development,Youth Connections Charter,7836,S,Union Ave,Chicago,IL,60620,170993003473,9047,15016299025004C,66614,Option,Charter -- YCCS,Alternative/Charter,HS,Charter,Original Replicating Charters,HS,10th-12th,NA||,17,71,Auburn Gresham,16,31,1,Auburn Gresham,5,3,170317101001017,41.7513776106,-87.6416945471,"(41.7513776106, -87.6416945471)"
400087,Yng Women -  Campus,Young Women's Leadership Charter High School,Yng Women - Chtr Campus,Young Womens Leadership Chartr,2641,S,Calumet Ave,Chicago,IL,60616,170993003981,2490,15016299025007C,66171,CPS,Charter,Charter,HS,Charter,Original Replicating Charters,HS,9th-12th,NA||,4,35,Douglas,3,5,7,Bronzeville,15,3,170318392001001,41.8445432736,-87.6187604882,"(41.8445432736, -87.6187604881999)"
609748,York,Consuella B York Alternative High School,York,York Alternative High School,2700,S,California Ave,Chicago,IL,60608,170993000693,1730,150162990253600,49041,Option,CPS,Alternative/District,HS,District,,HS,9th-12th,NA||,12,30,South Lawndale,11,21,7,Pilsen - Little Village,16,2,170318435001023,41.7598529312,-87.6759101224,"(41.7598529312, -87.6759101223999)"
